     2.100          NAVIGATION                              RINEX VERSION / TYPE
fic2rin                                 02/18/2015 00:31:57 PGM / RUN BY / DATE
                                                            END OF HEADER
25 15  2 17  6  0  0.0 -.436836853623D-05 -.284217094304D-11  .000000000000D+00
     .770000000000D+02  .938437500000D+02  .455733268834D-08 -.653674092241D+00
     .495649874210D-05  .420115946326D-02  .278279185295D-05  .515371932793D+04
     .194400000000D+06  .745058059692D-07 -.227439409307D+01  .000000000000D+00
     .977779619417D+00  .337312500000D+03  .661118993528D+00 -.842177937234D-08
     .390373403476D-09  .100000000000D+01  .183200000000D+04  .000000000000D+00
     .240000000000D+01  .000000000000D+00  .512227416039D-08  .770000000000D+02
     .187206000000D+06  .400000000000D+01
27 15  2 17  6  0  0.0  .520148314536D-04  .261479726760D-11  .000000000000D+00
     .850000000000D+02 -.120843750000D+03  .474305471012D-08 -.292697620620D+01
    -.622309744358D-05  .198311579879D-02  .394135713577D-05  .515368761444D+04
     .194400000000D+06 -.149011611938D-07 -.122891202788D+01  .186264514923D-07
     .966028703613D+00  .307031250000D+03  .136954143730D+00 -.842249368781D-08
    -.399659504565D-09  .100000000000D+01  .183200000000D+04  .000000000000D+00
     .240000000000D+01  .000000000000D+00  .186264514923D-08  .850000000000D+02
     .187206000000D+06  .400000000000D+01
28 15  2 17  6  0  0.0  .420068390667D-03  .261479726760D-11  .000000000000D+00
     .200000000000D+02  .922812500000D+02  .410838541646D-08 -.221562167376D+01
     .495091080666D-05  .196877815761D-01  .225938856602D-05  .515369237518D+04
     .194400000000D+06  .225380063057D-06 -.220480180291D+01  .169500708580D-06
     .988311299795D+00  .344781250000D+03 -.167046414556D+01 -.789497171440D-08
     .498949354672D-09  .100000000000D+01  .183200000000D+04  .000000000000D+00
     .240000000000D+01  .000000000000D+00 -.111758708954D-07  .200000000000D+02
     .187206000000D+06  .400000000000D+01
29 15  2 17  6  0  0.0  .592618249357D-03  .238742359215D-11  .000000000000D+00
     .550000000000D+02 -.124687500000D+03  .460304887832D-08 -.154566814283D+00
    -.639818608761D-05  .130308268126D-02  .511109828949D-05  .515355609703D+04
     .194400000000D+06 -.186264514923D-08 -.117244216849D+01  .614672899246D-07
     .972017749789D+00  .289468750000D+03 -.857201825394D+00 -.835784813792D-08
    -.391444876679D-09  .100000000000D+01  .183200000000D+04  .000000000000D+00
     .240000000000D+01  .000000000000D+00 -.977888703346D-08  .550000000000D+02
     .187206000000D+06  .400000000000D+01
30 15  2 17  6  0  0.0 -.843354500830D-04  .147792889038D-11  .000000000000D+00
     .112000000000D+03  .755000000000D+02  .425874882255D-08  .611251599414D+00
     .400096178055D-05  .100701965857D-02  .127796083689D-04  .515377769470D+04
     .194400000000D+06  .186264514923D-07  .303839495979D+01 -.558793544769D-08
     .957268359555D+00  .131875000000D+03  .293575307539D+01 -.788139972051D-08
     .207151485834D-10  .100000000000D+01  .183200000000D+04  .000000000000D+00
     .340000000000D+01  .000000000000D+00  .325962901115D-08  .112000000000D+03
     .187206000000D+06  .400000000000D+01
31 15  2 17  6  0  0.0  .323127023876D-03 -.909494701773D-12  .000000000000D+00
     .620000000000D+02  .869375000000D+02  .385587489838D-08  .395607376007D+00
     .457838177681D-05  .829873920884D-02  .133067369461D-04  .515373686218D+04
     .194400000000D+06  .596046447754D-07  .299500181058D+01 -.137835741043D-06
     .976460781214D+00  .128000000000D+03 -.547726715176D+00 -.779282460242D-08
     .571452374714D-11  .100000000000D+01  .183200000000D+04  .000000000000D+00
     .240000000000D+01  .000000000000D+00 -.135041773319D-07  .620000000000D+02
     .187206000000D+06  .400000000000D+01
32 15  2 17  6  0  0.0 -.221759080887D-03  .909494701773D-11  .000000000000D+00
     .970000000000D+02  .398750000000D+02  .523128933277D-08  .996742683316D+00
     .208988785744D-05  .113211901626D-01  .592507421970D-05  .515356657219D+04
     .194400000000D+06  .726431608200D-07  .950868221695D+00  .234693288803D-06
     .946995267503D+00  .256593750000D+03  .204027566910D-01 -.843177978890D-08
     .326085011321D-09  .100000000000D+01  .183200000000D+04  .000000000000D+00
     .240000000000D+01  .000000000000D+00 -.372529029846D-08  .970000000000D+02
     .187206000000D+06  .400000000000D+01
30 15  2 17  5 59 44.0 -.843349844217D-04  .147792889038D-11  .000000000000D+00
     .900000000000D+01  .755000000000D+02  .425874882255D-08  .608919977173D+00
     .400096178055D-05  .100702838972D-02  .127796083689D-04  .515377768898D+04
     .194384000000D+06  .186264514923D-07  .303839509877D+01 -.558793544769D-08
     .957268361018D+00  .131875000000D+03  .293575115604D+01 -.788139972051D-08
     .207151485834D-10  .100000000000D+01  .183200000000D+04  .000000000000D+00
     .240000000000D+01  .000000000000D+00  .325962901115D-08  .900000000000D+01
     .187656000000D+06  .400000000000D+01
27 15  2 17  5 59 44.0  .520157627761D-04  .261479726760D-11  .000000000000D+00
     .000000000000D+00 -.120843750000D+03  .474305471012D-08 -.292931210163D+01
    -.622309744358D-05  .198311824352D-02  .394135713577D-05  .515368762398D+04
     .194384000000D+06 -.149011611938D-07 -.122891186843D+01  .186264514923D-07
     .966028700687D+00  .307031250000D+03  .136956240091D+00 -.842249368781D-08
    -.399659504565D-09  .100000000000D+01  .183200000000D+04  .000000000000D+00
     .240000000000D+01  .000000000000D+00  .186264514923D-08  .000000000000D+00
     .190266000000D+06  .400000000000D+01
28 15  2 17  5 59 44.0  .420068390667D-03  .261479726760D-11  .000000000000D+00
     .230000000000D+02  .922812500000D+02  .410802825872D-08 -.221795542748D+01
     .495091080666D-05  .196877793642D-01  .225938856602D-05  .515369237518D+04
     .194384000000D+06  .225380063057D-06 -.220480167710D+01  .169500708580D-06
     .988311291018D+00  .344781250000D+03 -.167046410021D+01 -.789497171440D-08
     .498592196938D-09  .100000000000D+01  .183200000000D+04  .000000000000D+00
     .240000000000D+01  .000000000000D+00 -.111758708954D-07  .230000000000D+02
     .190956000000D+06  .400000000000D+01
16 15  2 17  5 59 44.0 -.155619345605D-03  .329691829393D-11  .000000000000D+00
     .000000000000D+00  .930312500000D+02  .431767984870D-08 -.208730603057D+01
     .456348061562D-05  .807940575760D-02  .302679836750D-05  .515374574471D+04
     .194384000000D+06 -.186264514923D-08 -.221026811335D+01 -.191852450371D-06
     .989723952010D+00  .338281250000D+03  .240086409980D+00 -.824927218673D-08
     .477877048354D-09  .100000000000D+01  .183200000000D+04  .000000000000D+00
     .240000000000D+01  .000000000000D+00 -.102445483208D-07  .000000000000D+00
     .192156000000D+06  .400000000000D+01
16 15  2 17  7 59 44.0 -.155595596880D-03  .329691829393D-11  .000000000000D+00
     .100000000000D+01  .888125000000D+02  .423160483476D-08 -.103718755813D+01
     .459328293800D-05  .807975931093D-02  .247918069363D-05  .515374548721D+04
     .201584000000D+06  .111758708954D-06 -.221032746101D+01 -.143423676491D-06
     .989727408885D+00  .341500000000D+03  .240103512955D+00 -.828891669522D-08
     .459304846176D-09  .100000000000D+01  .183200000000D+04  .000000000000D+00
     .240000000000D+01  .000000000000D+00 -.102445483208D-07  .100000000000D+01
     .194406000000D+06  .400000000000D+01
27 15  2 17  7 59 44.0  .520348548889D-04  .261479726760D-11  .000000000000D+00
     .700000000000D+01 -.121656250000D+03  .473412576677D-08 -.187895708119D+01
    -.637397170067D-05  .198339356575D-02  .424310564995D-05  .515368768501D+04
     .201584000000D+06  .279396772385D-07 -.122897285894D+01 -.111758708954D-07
     .966025823127D+00  .300343750000D+03  .136775895939D+00 -.845713798803D-08
    -.367158150754D-09  .100000000000D+01  .183200000000D+04  .000000000000D+00
     .240000000000D+01  .000000000000D+00  .186264514923D-08  .700000000000D+01
     .194406000000D+06  .400000000000D+01
28 15  2 17  7 59 44.0  .420087017119D-03  .261479726760D-11  .000000000000D+00
     .270000000000D+02  .989062500000D+02  .429125017637D-08 -.116790202125D+01
     .561587512493D-05  .196880018339D-01  .356510281563D-05  .515368809128D+04
     .201584000000D+06 -.229105353355D-06 -.220485941994D+01  .461935997009D-06
     .988312354559D+00  .330000000000D+03 -.167034965028D+01 -.839142096494D-08
     .421803284086D-09  .100000000000D+01  .183200000000D+04  .000000000000D+00
     .240000000000D+01  .000000000000D+00 -.111758708954D-07  .270000000000D+02
     .194406000000D+06  .400000000000D+01
 1 15  2 17  8  0  0.0 -.891881063581D-05  .454747350886D-12  .000000000000D+00
     .690000000000D+02 -.750625000000D+02  .417481675502D-08  .213521515816D+01
    -.376999378204D-05  .386666436680D-02  .136028975248D-04  .515368210411D+04
     .201600000000D+06 -.111758708954D-06 -.172410858496D+00  .502914190292D-07
     .962343210669D+00  .117625000000D+03  .404890534802D+00 -.777496671571D-08
     .226438003480D-09  .100000000000D+01  .183200000000D+04  .000000000000D+00
     .240000000000D+01  .000000000000D+00  .558793544769D-08  .690000000000D+02
     .194406000000D+06  .400000000000D+01
 2 15  2 17  8  0  0.0  .548466574401D-03  .227373675443D-11  .000000000000D+00
     .410000000000D+02 -.730625000000D+02  .453983195937D-08  .272059893977D+01
    -.388547778130D-05  .143923992291D-01  .128522515297D-04  .515378126907D+04
     .201600000000D+06 -.186264514923D-07 -.207793646159D+00 -.229105353355D-06
     .940934131649D+00  .117968750000D+03 -.231948445547D+01 -.777246661158D-08
     .978612191697D-10  .100000000000D+01  .183200000000D+04  .000000000000D+00
     .240000000000D+01  .000000000000D+00 -.204890966415D-07  .410000000000D+02
     .194406000000D+06  .400000000000D+01
